# Made by eph2tle, compiled Oct 22 2024 11:10:12
# Run at Thu Oct 24 16:20:17 2024
#
#    The following TLEs (Two-Line Elements) were generated by fitting
# a numerically-integrated ephemeris,  based on the orbit given below,
# to the SDP4/SGP4 models.  Each TLE is good for the interval between
# its epoch and the epoch of the subsequent TLE (usually one day).
# The maximum deviation between the numerically integrated ephemerides
# and the TLE-based ephemeris, in kilometers,  is given for each TLE
# as the "worst residual".
#
#    This fitting is done using the 'eph2tle' code packaged with Find_Orb.
# The code has details on how the TLEs were computed :
#
#    https://github.com/Bill-Gray/find_orb/eph2tle.cpp
#
#    Be warned:  the error given is that between the numerically
# integrated ephems and the TLE model.  There will usually be at
# least some additional difference between the ephems and the actual
# motion of the satellite,  especially if the ephemerides are based
# on a short arc.  If the following orbital elements say something
# like "[based on] 10 observations 2015 Jan. 1-13",  and the TLEs
# are for 2015 May,  the extrapolation may be tenuous at best.  If
# your application requires a specific level of accuracy,  you may
# want to contact me;  I can give you some idea as to the fit of the
# underlying data (and possibly TLEs based on newer data).
#
#   You can usually find the underlying observational data,  and the
# fitted orbit,  residuals,  ephemerides,  and sometimes some comments
# about the object,  among the pages listed at
#
#    https://www.projectpluto.com/pluto/mpecs/pseudo.htm
#
#    Also,  if you use a TLE outside the "correct" time range (between
# its MJD and that of the next TLE),  all bets are off.  I've carefully
# computed and minimized the worst error over the "correct" time frame,
# but the ephemeris may (or may not) diverge wildly outside of it.
#
# Ephem range: 60554.000000 60702.000000 1.000000
# Created Thu Oct 24 16:20:14 2024
# Ephemeris start:  1 Sep 2024  0:00:00
# Ephemeris end:   27 Jan 2025  0:00:00
# Times are all TDT
# Positions/velocities are in equatorial J2000
# Orbital elements:  A11cPAW
#    Perigee 2024 Oct 23.145674 +/- 0.0002 TT =  3:29:46.2 (JD 2460606.645674)
# A1: (1480.10 +/- 3.14)e-8   A2: (-24.87 +/- 1.63)e-8
# A3: (22 +/- 1)e-8 AU/day^2 [1/r^2]
# Epoch 2024 Oct 23.0 TT = JDT 2460606.5                           Find_Orb
# M 304.381837402 +/- 0.07            (J2000 equator)
# n 381.799253325 +/- 0.00275         Peri.  296.207219 +/- 0.016
# a 40617.52499 +/- 0.195             Node   277.162990 +/- 0.0016
# e   0.74855565 +/- 0.000152         Incl.   15.776004 +/- 0.00020
# P1357.756m/0.943d          H 31.02  G  0.15   U  8.8
# q 10213.04696 +/- 6.11    Q 71022.00301 +/- 6.49
# From 28 observations 2024 Oct. 10-23; mean residual 1".378
#
# 1 NoradU COSPAR   Epoch.epoch     dn/dt/2  d2n/dt2/6 BSTAR    T El# C
# 2 NoradU Inclina RAAscNode Eccent  ArgPeri MeanAno  MeanMotion Rev# C

# Worst residual: 78.12 km
# MJD 60554.000000 (2024 Sep  1  0:00)
A11cPAW
1 79905U 24999ZYV 24245.49919926  .00000000  00000-0  00000-0 0 24895
2 79905 017.1260 305.6303 6435454 231.7561 194.1481 01.05471001    02

# Worst residual: 132.40 km
# MJD 60555.000000 (2024 Sep  2  0:00)
A11cPAW
1 79905U 24999ZYV 24246.49919926  .00000000  00000-0  00000-0 0 24896
2 79905 017.0252 305.1553 6473801 232.9454 213.8395 01.05544564    04

# Worst residual: 151.75 km
# MJD 60556.000000 (2024 Sep  3  0:00)
A11cPAW
1 79905U 24999ZYV 24247.49919926  .00000000  00000-0  00000-0 0 24897
2 79905 016.9178 304.6060 6513096 234.2481 233.4603 01.05621715    06

# Worst residual: 188.27 km
# MJD 60557.000000 (2024 Sep  4  0:00)
A11cPAW
1 79905U 24999ZYV 24248.49919926  .00000000  00000-0  00000-0 0 24898
2 79905 016.8131 304.0523 6545889 235.5735 253.0525 01.05700169    05

# Worst residual: 201.23 km
# MJD 60558.000000 (2024 Sep  5  0:00)
A11cPAW
1 79905U 24999ZYV 24249.49919926  .00000000  00000-0  00000-0 0 24899
2 79905 016.7122 303.4670 6579299 236.9281 272.6666 01.05793232    09

# Worst residual: 179.06 km
# MJD 60559.000000 (2024 Sep  6  0:00)
A11cPAW
1 79905U 24999ZYV 24250.49919926  .00000000  00000-0  00000-0 0 24891
2 79905 016.6193 302.9089 6609324 238.2577 292.3037 01.05866374    09

# Worst residual: 178.40 km
# MJD 60560.000000 (2024 Sep  7  0:00)
A11cPAW
1 79905U 24999ZYV 24251.49919926  .00000000  00000-0  00000-0 0 24892
2 79905 016.5285 302.2951 6636395 239.6143 311.9783 01.05963383    07

# Worst residual: 177.29 km
# MJD 60561.000000 (2024 Sep  8  0:00)
A11cPAW
1 79905U 24999ZYV 24252.49919926  .00000000  00000-0  00000-0 0 24893
2 79905 016.4443 301.7117 6661971 240.9390 331.6735 01.06034207    08

# Worst residual: 146.47 km
# MJD 60562.000000 (2024 Sep  9  0:00)
A11cPAW
1 79905U 24999ZYV 24253.49919926  .00000000  00000-0  00000-0 0 24894
2 79905 016.3626 301.1190 6687963 242.2437 351.4276 01.06078130    04

# Worst residual: 141.31 km
# MJD 60563.000000 (2024 Sep 10  0:00)
A11cPAW
1 79905U 24999ZYV 24254.49919926  .00000000  00000-0  00000-0 0 24895
2 79905 016.2851 300.5333 6713323 243.5405 011.1696 01.06082289    00

# Worst residual: 175.31 km
# MJD 60564.000000 (2024 Sep 11  0:00)
A11cPAW
1 79905U 24999ZYV 24255.49919926  .00000000  00000-0  00000-0 0 24896
2 79905 016.2148 299.9376 6739483 244.8377 030.9126 01.06028538    08

# Worst residual: 190.90 km
# MJD 60565.000000 (2024 Sep 12  0:00)
A11cPAW
1 79905U 24999ZYV 24256.49919926  .00000000  00000-0  00000-0 0 24897
2 79905 016.1359 299.3387 6766627 246.1497 050.6077 01.05959297    03

# Worst residual: 181.21 km
# MJD 60566.000000 (2024 Sep 13  0:00)
A11cPAW
1 79905U 24999ZYV 24257.49919926  .00000000  00000-0  00000-0 0 24898
2 79905 016.0632 298.7213 6793249 247.4822 070.2738 01.05861204    05

# Worst residual: 208.02 km
# MJD 60567.000000 (2024 Sep 14  0:00)
A11cPAW
1 79905U 24999ZYV 24258.49919926  .00000000  00000-0  00000-0 0 24899
2 79905 016.0031 298.1299 6818498 248.8171 089.8555 01.05762404    07

# Worst residual: 212.61 km
# MJD 60568.000000 (2024 Sep 15  0:00)
A11cPAW
1 79905U 24999ZYV 24259.49919926  .00000000  00000-0  00000-0 0 24890
2 79905 015.9281 297.4022 6842731 250.2587 109.4700 01.05666033    05

# Worst residual: 204.64 km
# MJD 60569.000000 (2024 Sep 16  0:00)
A11cPAW
1 79905U 24999ZYV 24260.49919926  .00000000  00000-0  00000-0 0 24892
2 79905 015.8537 296.7678 6864424 251.6352 128.9862 01.05579252    06

# Worst residual: 152.63 km
# MJD 60570.000000 (2024 Sep 17  0:00)
A11cPAW
1 79905U 24999ZYV 24261.49919926  .00000000  00000-0  00000-0 0 24893
2 79905 015.7920 296.0565 6883531 253.0583 148.5594 01.05518967    07

# Worst residual: 82.72 km
# MJD 60571.000000 (2024 Sep 18  0:00)
A11cPAW
1 79905U 24999ZYV 24262.49919926  .00000000  00000-0  00000-0 0 24894
2 79905 015.7391 295.3616 6903466 254.4672 168.1079 01.05484436    01

# Worst residual: 72.45 km
# MJD 60572.000000 (2024 Sep 19  0:00)
A11cPAW
1 79905U 24999ZYV 24263.49919926  .00000000  00000-0  00000-0 0 24895
2 79905 015.6861 294.6369 6921621 255.8873 187.6834 01.05448603    01

# Worst residual: 92.29 km
# MJD 60573.000000 (2024 Sep 20  0:00)
A11cPAW
1 79905U 24999ZYV 24264.49919926  .00000000  00000-0  00000-0 0 24896
2 79905 015.6500 294.0164 6947158 257.1825 207.3187 01.05486475    03

# Worst residual: 123.08 km
# MJD 60574.000000 (2024 Sep 21  0:00)
A11cPAW
1 79905U 24999ZYV 24265.49919926  .00000000  00000-0  00000-0 0 24897
2 79905 015.6066 293.3294 6977928 258.5726 226.9002 01.05566720    04

# Worst residual: 213.78 km
# MJD 60575.000000 (2024 Sep 22  0:00)
A11cPAW
1 79905U 24999ZYV 24266.49919926  .00000000  00000-0  00000-0 0 24898
2 79905 015.5776 292.6360 7001302 259.9913 246.4470 01.05628360    00

# Worst residual: 227.92 km
# MJD 60576.000000 (2024 Sep 23  0:00)
A11cPAW
1 79905U 24999ZYV 24267.49919926  .00000000  00000-0  00000-0 0 24899
2 79905 015.5416 291.8517 7026216 261.4899 266.0484 01.05715298    08

# Worst residual: 204.19 km
# MJD 60577.000000 (2024 Sep 24  0:00)
A11cPAW
1 79905U 24999ZYV 24268.49919926  .00000000  00000-0  00000-0 0 24890
2 79905 015.5234 291.2389 7050092 262.8299 285.6085 01.05800494    02

# Worst residual: 193.11 km
# MJD 60578.000000 (2024 Sep 25  0:00)
A11cPAW
1 79905U 24999ZYV 24269.49919926  .00000000  00000-0  00000-0 0 24891
2 79905 015.5029 290.6337 7069291 264.1540 305.2402 01.05888310    00

# Worst residual: 206.27 km
# MJD 60579.000000 (2024 Sep 26  0:00)
A11cPAW
1 79905U 24999ZYV 24270.49919926  .00000000  00000-0  00000-0 0 24893
2 79905 015.4976 289.9380 7088230 265.5598 324.8604 01.05976572    00

# Worst residual: 174.50 km
# MJD 60580.000000 (2024 Sep 27  0:00)
A11cPAW
1 79905U 24999ZYV 24271.49919926  .00000000  00000-0  00000-0 0 24894
2 79905 015.4861 289.3404 7106936 266.8402 344.5659 01.06030864    01

# Worst residual: 146.29 km
# MJD 60581.000000 (2024 Sep 28  0:00)
A11cPAW
1 79905U 24999ZYV 24272.49919926  .00000000  00000-0  00000-0 0 24895
2 79905 015.4809 288.6859 7124157 268.1879 004.2469 01.06071966    04

# Worst residual: 130.77 km
# MJD 60582.000000 (2024 Sep 29  0:00)
A11cPAW
1 79905U 24999ZYV 24273.49919926  .00000000  00000-0  00000-0 0 24896
2 79905 015.4719 288.1120 7142007 269.4351 023.9591 01.06045821    08

# Worst residual: 147.04 km
# MJD 60583.000000 (2024 Sep 30  0:00)
A11cPAW
1 79905U 24999ZYV 24274.49919926  .00000000  00000-0  00000-0 0 24897
2 79905 015.4706 287.5363 7162365 270.6896 043.6321 01.05987749    06

# Worst residual: 149.74 km
# MJD 60584.000000 (2024 Oct  1  0:00)
A11cPAW
1 79905U 24999ZYV 24275.49919926  .00000000  00000-0  00000-0 0 24898
2 79905 015.4733 286.9394 7180100 271.9659 063.2811 01.05901387    07

# Worst residual: 192.62 km
# MJD 60585.000000 (2024 Oct  2  0:00)
A11cPAW
1 79905U 24999ZYV 24276.49919926  .00000000  00000-0  00000-0 0 24899
2 79905 015.4745 286.3219 7198278 273.3030 082.8349 01.05801445    01
